[{"OBJECT_NAME":"SPAWAR-CAL-O","OBJECT_ID":"2018-099J","EPOCH":"2026-03-09T17:45:15.080832","MEAN_MOTION":15.31356755,"ECCENTRICITY":0.00072392,"INCLINATION":97.4452,"RA_OF_ASC_NODE":132.0993,"ARG_OF_PERICENTER":285.067,"MEAN_ANOMALY":74.977,"EPHEMERIS_TYPE":0,"CLASSIFICATION_TYPE":"U","NORAD_CAT_ID":43766,"ELEMENT_SET_NO":999,"REV_AT_EPOCH":39828,"BSTAR":0.00069663212,"MEAN_MOTION_DOT":0.00021069,"MEAN_MOTION_DDOT":0},{"OBJECT_NAME":"STARLINK-31323","OBJECT_ID":"2024-020G","EPOCH":"2026-03-09T21:26:58.632288","MEAN_MOTION":15.30197187,"ECCENTRICITY":7.152e-5,"INCLINATION":53.162,"RA_OF_ASC_NODE":321.3789,"ARG_OF_PERICENTER":64.5266,"MEAN_ANOMALY":295.5809,"EPHEMERIS_TYPE":0,"CLASSIFICATION_TYPE":"U","NORAD_CAT_ID":58882,"ELEMENT_SET_NO":999,"REV_AT_EPOCH":11810,"BSTAR":2.7795841e-5,"MEAN_MOTION_DOT":4.64e-6,"MEAN_MOTION_DDOT":0}]
